{
  "type": "FeatureCollection",
  "features": [
    {
      "type": "Feature",
      "properties": {
        "norad_id": 40118,
        "name": "GAOFEN-2",
        "group": "resource",
        "lat": -23.234545365701276,
        "lon": -124.80332637696725,
        "alt_km": 636.3805097250452,
        "timestamp": "2025-12-25T11:37:44.078818+00:00",
        "meta_object_name": "GAOFEN-2",
        "meta_object_id": "2014-049A",
        "meta_epoch": "2025-12-25T04:13:34.921632",
        "meta_mean_motion": 14.80627277,
        "meta_eccentricity": 0.0008709,
        "meta_inclination": 98.0364,
        "meta_ra_of_asc_node": 58.3652,
        "meta_arg_of_pericenter": 78.6958,
        "meta_mean_anomaly": 281.5232,
        "meta_ephemeris_type": 0,
        "meta_classification_type": "U",
        "meta_norad_cat_id": 40118,
        "meta_element_set_no": 999,
        "meta_rev_at_epoch": 61348,
        "meta_bstar": 4.3155e-05,
        "meta_mean_motion_dot": 2.78e-06,
        "meta_mean_motion_ddot": 0,
        "tle_line1": "1 40118U 14049A   25359.17609863  .00000278  00000+0  43155-4 0  9994",
        "tle_line2": "2 40118  98.0364  58.3652 0008709  78.6958 281.5232 14.80627277613481"
      },
      "geometry": {
        "type": "Point",
        "coordinates": [
          -124.80332637696725,
          -23.234545365701276
        ]
      }
    },
    {
      "type": "Feature",
      "properties": {
        "norad_id": 40143,
        "name": "YAOGAN-21",
        "group": "resource",
        "lat": -18.658077489431466,
        "lon": 44.680190651289564,
        "alt_km": 494.03225362773446,
        "timestamp": "2025-12-25T11:37:44.078829+00:00",
        "meta_object_name": "YAOGAN-21",
        "meta_object_id": "2014-053A",
        "meta_epoch": "2025-12-25T05:24:25.308288",
        "meta_mean_motion": 15.23796406,
        "meta_eccentricity": 0.0008477,
        "meta_inclination": 97.1735,
        "meta_ra_of_asc_node": 41.9948,
        "meta_arg_of_pericenter": 0.568,
        "meta_mean_anomaly": 359.5566,
        "meta_ephemeris_type": 0,
        "meta_classification_type": "U",
        "meta_norad_cat_id": 40143,
        "meta_element_set_no": 999,
        "meta_rev_at_epoch": 62844,
        "meta_bstar": 0.00017215,
        "meta_mean_motion_dot": 4.08e-05,
        "meta_mean_motion_ddot": 0,
        "tle_line1": "1 40143U 14053A   25359.22529292  .00004080  00000+0  17215-3 0  9992",
        "tle_line2": "2 40143  97.1735  41.9948 0008477   0.5680 359.5566 15.23796406628442"
      },
      "geometry": {
        "type": "Point",
        "coordinates": [
          44.680190651289564,
          -18.658077489431466
        ]
      }
    },
    {
      "type": "Feature",
      "properties": {
        "norad_id": 40275,
        "name": "YAOGAN-22",
        "group": "resource",
        "lat": -0.6167712493848462,
        "lon": 143.20120951889044,
        "alt_km": 1208.2699390789267,
        "timestamp": "2025-12-25T11:37:44.078839+00:00",
        "meta_object_name": "YAOGAN-22",
        "meta_object_id": "2014-063A",
        "meta_epoch": "2025-12-25T00:40:50.428416",
        "meta_mean_motion": 13.15523246,
        "meta_eccentricity": 0.0006087,
        "meta_inclination": 100.743,
        "meta_ra_of_asc_node": 142.6217,
        "meta_arg_of_pericenter": 218.7981,
        "meta_mean_anomaly": 141.2694,
        "meta_ephemeris_type": 0,
        "meta_classification_type": "U",
        "meta_norad_cat_id": 40275,
        "meta_element_set_no": 999,
        "meta_rev_at_epoch": 53691,
        "meta_bstar": 7.3351e-05,
        "meta_mean_motion_dot": -1.9e-07,
        "meta_mean_motion_ddot": 0,
        "tle_line1": "1 40275U 14063A   25359.02836144 -.00000019  00000+0  73351-4 0  9997",
        "tle_line2": "2 40275 100.7430 142.6217 0006087 218.7981 141.2694 13.15523246536918"
      },
      "geometry": {
        "type": "Point",
        "coordinates": [
          143.20120951889044,
          -0.6167712493848462
        ]
      }
    },
    {
      "type": "Feature",
      "properties": {
        "norad_id": 40298,
        "name": "ASNARO",
        "group": "resource",
        "lat": -20.82188375624969,
        "lon": -107.69911672392762,
        "alt_km": 513.4628169098296,
        "timestamp": "2025-12-25T11:37:44.078849+00:00",
        "meta_object_name": "ASNARO",
        "meta_object_id": "2014-070A",
        "meta_epoch": "2025-12-25T04:25:38.546688",
        "meta_mean_motion": 15.19748505,
        "meta_eccentricity": 0.0005762,
        "meta_inclination": 97.3635,
        "meta_ra_of_asc_node": 74.8271,
        "meta_arg_of_pericenter": 89.0664,
        "meta_mean_anomaly": 271.1231,
        "meta_ephemeris_type": 0,
        "meta_classification_type": "U",
        "meta_norad_cat_id": 40298,
        "meta_element_set_no": 999,
        "meta_rev_at_epoch": 61758,
        "meta_bstar": 0.0006397,
        "meta_mean_motion_dot": 0.00013631,
        "meta_mean_motion_ddot": 0,
        "tle_line1": "1 40298U 14070A   25359.18447392  .00013631  00000+0  63970-3 0  9998",
        "tle_line2": "2 40298  97.3635  74.8271 0005762  89.0664 271.1231 15.19748505617589"
      },
      "geometry": {
        "type": "Point",
        "coordinates": [
          -107.69911672392762,
          -20.82188375624969
        ]
      }
    },
    {
      "type": "Feature",
      "properties": {
        "norad_id": 40310,
        "name": "YAOGAN-24",
        "group": "resource",
        "lat": -15.973115681895184,
        "lon": 132.98950430035646,
        "alt_km": 650.839862177052,
        "timestamp": "2025-12-25T11:37:44.078859+00:00",
        "meta_object_name": "YAOGAN-24",
        "meta_object_id": "2014-072A",
        "meta_epoch": "2025-12-25T05:11:41.345664",
        "meta_mean_motion": 14.76202562,
        "meta_eccentricity": 0.0015223,
        "meta_inclination": 98.1233,
        "meta_ra_of_asc_node": 130.3769,
        "meta_arg_of_pericenter": 100.8502,
        "meta_mean_anomaly": 259.4421,
        "meta_ephemeris_type": 0,
        "meta_classification_type": "U",
        "meta_norad_cat_id": 40310,
        "meta_element_set_no": 999,
        "meta_rev_at_epoch": 59805,
        "meta_bstar": 0.0001868,
        "meta_mean_motion_dot": 1.242e-05,
        "meta_mean_motion_ddot": 0,
        "tle_line1": "1 40310U 14072A   25359.21645076  .00001242  00000+0  18680-3 0  9991",
        "tle_line2": "2 40310  98.1233 130.3769 0015223 100.8502 259.4421 14.76202562598053"
      },
      "geometry": {
        "type": "Point",
        "coordinates": [
          132.98950430035646,
          -15.973115681895184
        ]
      }
    },
    {
      "type": "Feature",
      "properties": {
        "norad_id": 40336,
        "name": "CBERS 4",
        "group": "resource",
        "lat": 21.08838208242173,
        "lon": 53.82565319791183,
        "alt_km": 772.8834535883843,
        "timestamp": "2025-12-25T11:37:44.078869+00:00",
        "meta_object_name": "CBERS 4",
        "meta_object_id": "2014-079A",
        "meta_epoch": "2025-12-25T04:50:18.786048",
        "meta_mean_motion": 14.35522423,
        "meta_eccentricity": 0.0001875,
        "meta_inclination": 98.3288,
        "meta_ra_of_asc_node": 56.791,
        "meta_arg_of_pericenter": 99.1391,
        "meta_mean_anomaly": 261.0007,
        "meta_ephemeris_type": 0,
        "meta_classification_type": "U",
        "meta_norad_cat_id": 40336,
        "meta_element_set_no": 999,
        "meta_rev_at_epoch": 57899,
        "meta_bstar": 5.9583e-05,
        "meta_mean_motion_dot": 1.29e-06,
        "meta_mean_motion_ddot": 0,
        "tle_line1": "1 40336U 14079A   25359.20160632  .00000129  00000+0  59583-4 0  9996",
        "tle_line2": "2 40336  98.3288  56.7910 0001875  99.1391 261.0007 14.35522423578992"
      },
      "geometry": {
        "type": "Point",
        "coordinates": [
          53.82565319791183,
          21.08838208242173
        ]
      }
    },
    {
      "type": "Feature",
      "properties": {
        "norad_id": 40362,
        "name": "YAOGAN-26",
        "group": "resource",
        "lat": 58.146344010060204,
        "lon": -11.806853115615,
        "alt_km": 440.2898716229229,
        "timestamp": "2025-12-25T11:37:44.078880+00:00",
        "meta_object_name": "YAOGAN-26",
        "meta_object_id": "2014-088A",
        "meta_epoch": "2025-12-25T05:08:07.744992",
        "meta_mean_motion": 15.39743466,
        "meta_eccentricity": 0.0004274,
        "meta_inclination": 97.0645,
        "meta_ra_of_asc_node": 359.4455,
        "meta_arg_of_pericenter": 349.52,
        "meta_mean_anomaly": 10.5957,
        "meta_ephemeris_type": 0,
        "meta_classification_type": "U",
        "meta_norad_cat_id": 40362,
        "meta_element_set_no": 999,
        "meta_rev_at_epoch": 61086,
        "meta_bstar": 0.00074613,
        "meta_mean_motion_dot": 0.00029524,
        "meta_mean_motion_ddot": 0,
        "tle_line1": "1 40362U 14088A   25359.21397853  .00029524  00000+0  74613-3 0  9993",
        "tle_line2": "2 40362  97.0645 359.4455 0004274 349.5200  10.5957 15.39743466610869"
      },
      "geometry": {
        "type": "Point",
        "coordinates": [
          -11.806853115615,
          58.146344010060204
        ]
      }
    }
  ]
}